OBJECT_NAME,OBJECT_ID,EPOCH,MEAN_MOTION,ECCENTRICITY,INCLINATION,RA_OF_ASC_NODE,ARG_OF_PERICENTER,MEAN_ANOMALY,EPHEMERIS_TYPE,CLASSIFICATION_TYPE,NORAD_CAT_ID,ELEMENT_SET_NO,REV_AT_EPOCH,BSTAR,MEAN_MOTION_DOT,MEAN_MOTION_DDOT
COSMOS 2251 DEB,1993-036ZG,2024-02-23T22:46:01.925760,14.43494316,0.0049549,74.0166,290.1479,235.3448,137.3221,0,U,34738,999,78357,0.00031768,1.063e-05,0
COSMOS 2251 DEB,1993-036ZQ,2024-02-23T23:10:58.567296,15.68274451,0.0021121,73.9908,13.5636,183.7298,176.3771,0,U,34746,999,79872,0.012975,0.01654753,0
COSMOS 2251 DEB,1993-036ZU,2024-02-23T23:10:21.119808,14.49315045,0.0047841,74.1155,2.5395,139.5723,294.4105,0,U,34750,999,78660,0.0012068,4.65e-05,0
COSMOS 2251 DEB,1993-036ZV,2024-02-23T02:31:08.736672,14.73805175,0.0028129,73.9949,292.2235,147.1515,4.9491,0,U,34751,999,78850,0.0033166,0.0002188,0
COSMOS 2251 DEB,1993-036ZW,2024-02-23T22:06:20.301984,14.78245627,0.0076303,74.018,236.3492,175.3612,184.8289,0,U,34752,999,80059,0.0013779,0.00010481,0
COSMOS 2251 DEB,1993-036ZY,2024-02-24T07:35:30.784128,14.38684288,0.0031575,74.0336,2.1011,278.9971,207.9903,0,U,34754,999,78715,0.0004159,1.256e-05,0
COSMOS 2251 DEB,1993-036ZZ,2024-02-24T08:12:24.806592,13.48235026,0.0413211,73.9239,264.6313,46.9359,124.8708,0,U,34755,999,73755,0.0011693,1.203e-05,0
COSMOS 2251 DEB,1993-036AAA,2024-02-23T13:54:51.260544,13.63938148,0.0350465,74.0034,103.8757,117.738,245.9743,0,U,34756,999,74436,0.00096111,1.139e-05,0
COSMOS 2251 DEB,1993-036AAC,2024-02-24T08:05:51.673632,13.55300322,0.0395975,74.105,275.5077,190.4836,168.7841,0,U,34758,999,74032,0.001092,1.229e-05,0
COSMOS 2251 DEB,1993-036AAE,2024-02-23T16:16:33.201120,14.16820007,0.0103105,74.0645,34.3336,248.359,287.9623,0,U,34760,999,77358,0.00065035,1.347e-05,0
COSMOS 2251 DEB,1993-036AAF,2024-02-23T22:50:51.124704,14.33513978,0.0042837,74.0307,130.9373,326.0795,33.7618,0,U,34761,999,78264,0.00070058,1.931e-05,0
COSMOS 2251 DEB,1993-036AAM,2024-02-23T22:01:07.705056,14.54939523,0.0054271,74.0103,138.0415,106.5503,254.163,0,U,34784,999,78947,0.00054697,2.371e-05,0
COSMOS 2251 DEB,1993-036AAR,2024-02-23T13:31:06.118464,15.06683726,0.0103555,73.9844,268.7883,197.5394,162.2213,0,U,34788,999,81422,0.0009004,0.000151,0
COSMOS 2251 DEB,1993-036AAS,2024-02-24T04:36:14.094720,14.55606405,0.0070471,74.1967,319.1688,291.7042,195.2655,0,U,34789,999,77864,0.0055476,0.00025091,0
COSMOS 2251 DEB,1993-036AAT,2024-02-24T05:53:50.641728,14.20749962,0.010721,74.0586,344.1139,206.5191,304.7363,0,U,34790,999,77364,0.0007089,1.596e-05,0
COSMOS 2251 DEB,1993-036AAV,2024-02-23T11:12:32.179104,14.46597744,0.0017754,74.0262,330.2157,219.8494,259.1895,0,U,34792,999,78098,0.0009687,3.475e-05,0
COSMOS 2251 DEB,1993-036AAW,2024-02-23T23:16:25.230144,14.36615628,0.0053287,74.0045,23.8051,331.8826,84.3115,0,U,34793,999,77877,0.00049081,1.441e-05,0
COSMOS 2251 DEB,1993-036AAZ,2024-02-23T07:06:28.000224,14.42433667,0.0112652,74.0366,5.1193,269.1268,242.5177,0,U,34796,999,78511,0.00085395,3.022e-05,0
COSMOS 2251 DEB,1993-036ABA,2024-02-23T18:03:43.228224,14.30910687,0.0090759,73.9796,234.9552,137.2078,223.6185,0,U,34797,999,77961,0.0028053,7.69e-05,0
COSMOS 2251 DEB,1993-036ABC,2024-02-24T02:43:24.722976,13.41767238,0.0484573,73.9246,103.0741,259.3591,95.2607,0,U,34813,999,72830,0.0051298,5.737e-05,0
COSMOS 2251 DEB,1993-036ABD,2024-02-24T09:52:07.737024,14.31375745,0.0056373,73.8955,99.4002,123.434,250.4849,0,U,34814,999,77988,0.00078295,2.086e-05,0
COSMOS 2251 DEB,1993-036ABE,2024-02-24T04:50:31.200864,14.65279968,0.0074956,74.0442,80.2267,320.3612,39.2089,0,U,34815,999,79010,0.00095106,5.316e-05,0
COSMOS 2251 DEB,1993-036ABF,2024-02-23T11:47:44.418048,13.56047402,0.038328,73.8879,135.3587,317.632,51.8619,0,U,34816,999,73852,0.00089391,9.81e-06,0
COSMOS 2251 DEB,1993-036ABH,2024-02-23T11:45:55.059840,14.35135586,0.0026879,74.0345,65.6809,302.9592,211.9362,0,U,34818,999,77920,0.00034239,9.55e-06,0
COSMOS 2251 DEB,1993-036ABJ,2024-02-23T11:48:28.698912,14.49939061,0.0024259,74.0258,314.3912,204.1769,331.2012,0,U,34819,999,78640,0.0010788,4.163e-05,0
COSMOS 2251 DEB,1993-036ABN,2024-02-23T21:18:25.392096,14.48537563,0.0170967,74.041,261.7625,152.0484,208.9992,0,U,34823,999,78833,0.00061238,2.739e-05,0
COSMOS 2251 DEB,1993-036ABP,2024-02-21T08:36:50.891040,14.43372406,0.0023523,74.027,298.7147,260.258,99.592,0,U,34845,999,77929,0.00034288,1.134e-05,0
COSMOS 2251 DEB,1993-036ABQ,2024-02-24T09:46:32.974176,14.40425128,0.0031962,74.0335,44.8076,273.7361,86.014,0,U,34846,999,77914,0.0012773,4.058e-05,0
COSMOS 2251 DEB,1993-036ABR,2024-02-23T16:47:58.146720,15.06761615,0.0084247,74.0357,305.8548,176.2553,183.9288,0,U,34847,999,58143,0.00087794,0.00014152,0
COSMOS 2251 DEB,1993-036ABW,2024-02-23T15:57:58.175424,14.36051847,0.0017863,74.0332,32.431,296.926,63.0067,0,U,34852,999,78084,0.00020478,5.7e-06,0
COSMOS 2251 DEB,1993-036ABY,2024-02-22T13:59:28.822272,14.66754466,0.00799,74.0367,1.0809,280.2402,78.9765,0,U,34854,999,79365,0.00091185,5.3e-05,0
COSMOS 2251 DEB,1993-036ACA,2024-02-23T19:26:53.382048,14.75123773,0.0066413,74.0117,322.7329,260.2521,156.9922,0,U,34856,999,79317,0.0012512,8.725e-05,0
COSMOS 2251 DEB,1993-036ACB,2024-02-23T14:35:08.673792,14.49509713,0.007854,74.0187,273.2631,197.526,193.7379,0,U,34857,999,78332,0.00087989,3.48e-05,0
COSMOS 2251 DEB,1993-036ACD,2024-02-23T20:59:53.349792,14.64450241,0.0007579,74.0382,205.1803,99.4167,53.1078,0,U,34859,999,78596,0.0018025,9.529e-05,0
COSMOS 2251 DEB,1993-036ACE,2024-02-23T19:37:07.194432,15.26527011,0.0026231,74.0015,78.2653,311.4843,48.4105,0,U,34860,999,78999,0.0076389,0.0020714,0
COSMOS 2251 DEB,1993-036ACF,2024-02-23T21:09:14.963616,14.60253953,0.0022484,74.0257,267.4083,130.8008,242.5506,0,U,34861,999,78362,0.0023078,0.00011165,0
COSMOS 2251 DEB,1993-036ACM,2024-02-23T19:53:07.298880,14.30858235,0.0058342,74.0405,196.9606,23.3853,126.7049,0,U,34874,999,77615,0.00087347,2.31e-05,0
COSMOS 2251 DEB,1993-036ACN,2024-02-23T23:23:19.480128,14.44828449,0.0017962,74.0483,306.854,232.6001,140.8554,0,U,34875,999,78241,0.00045893,1.572e-05,0
COSMOS 2251 DEB,1993-036ACR,2024-02-23T13:38:09.152736,13.42401097,0.0440503,73.9672,10.1266,120.8201,0.6573,0,U,34878,999,72987,0.00068783,6.74e-06,0
COSMOS 2251 DEB,1993-036ACS,2024-02-21T13:52:56.979264,13.3014909,0.0526698,73.9105,248.7237,86.6682,279.4496,0,U,34879,999,72346,0.003261,3.281e-05,0
COSMOS 2251 DEB,1993-036ACV,2024-02-23T22:26:17.560608,14.59182185,0.0086695,74.0481,41.1232,336.7451,22.9801,0,U,34882,999,79280,0.00037814,1.846e-05,0
COSMOS 2251 DEB,1993-036ACW,2024-02-23T18:32:19.943520,14.26375665,0.0131616,74.2101,183.9455,195.539,164.1703,0,U,34883,999,76977,0.0055098,0.00014515,0
COSMOS 2251 DEB,1993-036ACX,2024-02-23T23:16:29.671968,14.58369529,0.0015992,74.0286,259.1915,140.915,343.2443,0,U,34884,999,78120,0.0017038,7.885e-05,0
COSMOS 2251 DEB,1993-036ACY,2024-02-23T21:40:06.418848,14.44913054,0.0019247,74.038,335.5595,222.0823,207.0276,0,U,34885,999,77954,0.00082998,2.872e-05,0
COSMOS 2251 DEB,1993-036ACZ,2024-02-22T19:38:11.703264,14.89513715,0.007997,73.9742,105.0794,89.4318,271.6025,0,U,34886,999,53060,0.00087523,8.83e-05,0
COSMOS 2251 DEB,1993-036ADC,2024-02-23T21:43:50.321856,14.60519844,0.0018137,74.012,280.6054,144.2172,227.7653,0,U,34907,999,78199,0.0020061,9.744e-05,0
COSMOS 2251 DEB,1993-036ADD,2024-02-23T23:02:19.279968,14.33234504,0.0045583,74.0608,148.6743,331.0675,146.7599,0,U,34908,999,77840,0.00068018,1.866e-05,0
COSMOS 2251 DEB,1993-036ADE,2024-02-24T07:12:30.374784,14.69618918,0.0098528,74.0159,281.1614,222.2349,137.1205,0,U,34909,999,79681,0.00050234,3.184e-05,0
COSMOS 2251 DEB,1993-036ADF,2024-02-23T18:09:51.712992,13.3571066,0.0477327,73.8749,58.277,288.9727,252.6996,0,U,34910,999,72731,0.0014163,1.36e-05,0
COSMOS 2251 DEB,1993-036ADG,2024-02-23T10:52:46.187904,14.5749611,0.0086771,74.0403,57.6696,350.3226,160.493,0,U,34911,999,78989,0.00025726,1.199e-05,0
COSMOS 2251 DEB,1993-036ADH,2024-02-23T08:56:45.468672,14.95064283,0.0034303,74.1567,305.8541,15.2801,344.9411,0,U,34912,999,79856,0.0016723,0.00018546,0
COSMOS 2251 DEB,1993-036ADJ,2024-02-24T05:49:26.848704,14.3425918,0.0022007,74.0272,47.1131,315.7058,57.4838,0,U,34913,999,78045,9.0074e-05,2.27e-06,0
COSMOS 2251 DEB,1993-036ADK,2024-02-23T13:40:44.982912,14.85128178,0.0111576,73.9949,357.4011,75.151,286.1996,0,U,34914,999,79317,0.0027618,0.00026496,0
COSMOS 2251 DEB,1993-036ADM,2024-02-23T17:48:31.764384,15.31756027,0.0036944,74.0459,305.669,233.1854,126.5959,0,U,34916,999,79996,0.0060597,0.00194579,0
COSMOS 2251 DEB,1993-036ADP,2024-02-21T21:09:56.255040,14.44018072,0.0044548,74.0775,115.7782,259.0355,217.2937,0,U,34918,999,55753,0.0017053,5.88e-05,0
COSMOS 2251 DEB,1993-036ADR,2024-02-23T22:33:57.361536,14.66622555,0.0012436,74.0244,244.9074,110.5235,249.727,0,U,34920,999,78619,0.0033999,0.00018938,0
COSMOS 2251 DEB,1993-036ADV,2024-02-23T19:37:42.644352,14.51185054,0.0065938,74.042,256.1356,146.5446,227.1439,0,U,34924,999,78149,0.0010372,4.21e-05,0
COSMOS 2251 DEB,1993-036ADX,2024-02-23T04:12:36.357120,14.1035692,0.0231037,73.7656,336.694,291.4736,66.1906,0,U,34944,999,54938,0.0010537,2.371e-05,0
COSMOS 2251 DEB,1993-036ADZ,2024-02-24T12:47:24.125568,14.5518193,0.0055382,74.0256,154.9545,94.0374,266.7122,0,U,34946,999,78653,0.00074909,3.278e-05,0
COSMOS 2251 DEB,1993-036AEB,2024-02-24T01:17:02.029344,14.65845405,0.0022268,74.0134,274.2111,131.1489,21.7552,0,U,34948,999,78356,0.0026135,0.00014324,0
COSMOS 2251 DEB,1993-036AEC,2024-02-23T09:10:43.948704,14.6723893,0.0090479,74.0235,309.2796,259.9914,99.1036,0,U,34949,999,78682,0.00038565,2.276e-05,0
COSMOS 2251 DEB,1993-036AEE,2024-02-23T11:01:37.192800,14.80288117,0.0054361,74.0152,314.9767,247.2025,112.3403,0,U,34951,999,78945,0.0013303,0.00010372,0
COSMOS 2251 DEB,1993-036AEG,2024-02-23T20:03:53.587296,14.5765368,0.0071882,74.0965,205.7177,17.567,133.4278,0,U,34953,999,78503,0.00080597,3.78e-05,0
